{
  "type": "FeatureCollection",
  "features": [
    {
      "type": "Feature",
      "properties": {
        "name": "北京市"
      },
      "geometry": {
        "type": "Polygon",
        "coordinates": [
          [
            [
              116.0,
              39.6
            ],
            [
              116.8,
              39.6
            ],
            [
              116.8,
              40.2
            ],
            [
              116.0,
              40.2
            ],
            [
              116.0,
              39.6
            ]
          ]
        ]
      }
    },
    {
      "type": "Feature",
      "properties": {
        "name": "天津市"
      },
      "geometry": {
        "type": "Polygon",
        "coordinates": [
          [
            [
              117.0,
              38.8
            ],
            [
              117.6,
              38.8
            ],
            [
              117.6,
              39.4
            ],
            [
              117.0,
              39.4
            ],
            [
              117.0,
              38.8
            ]
          ]
        ]
      }
    },
    {
      "type": "Feature",
      "properties": {
        "name": "河北省"
      },
      "geometry": {
        "type": "Polygon",
        "coordinates": [
          [
            [
              114.0,
              37.5
            ],
            [
              119.0,
              37.5
            ],
            [
              119.0,
              41.0
            ],
            [
              114.0,
              41.0
            ],
            [
              114.0,
              37.5
            ]
          ]
        ]
      }
    }
  ]
}